NORAD_CAT_ID,OBJECT_NAME,OBJECT_TYPE,EPOCH,MEAN_MOTION,ECCENTRICITY,INCLINATION,RA_OF_ASC_NODE,ARG_OF_PERICENTER,MEAN_ANOMALY,BSTAR,MEAN_MOTION_DOT,MEAN_MOTION_DDOT,TLE_LINE0,TLE_LINE1,TLE_LINE2,SEMIMAJOR_AXIS,PERIOD,APOGEE,PERIGEE,DECAYED
51733.0,STARLINK-3525,PAYLOAD,2022-04-19 14:00:01,15.53103391,0.0001792,53.2174,218.5775,30.7793,4.8776,-0.012293,-0.00716078,0.0,0 STARLINK-3525,1 51733U 22016V   22109.58334491 -.00716078  00000-0 -12293-1 0  9990,2 51733  53.2174 218.5775 0001792  30.7793   4.8776 15.53103391  3709,6785.808000000001,92.718,408.889,406.457,0.0
51733.0,STARLINK-3525,PAYLOAD,2022-04-20 06:00:00,15.52082171,0.0001819,53.2175,215.3797,37.2005,126.7774,-0.012703,-0.00713269,0.0,0 STARLINK-3525,1 51733U 22016V   22110.25001157 -.00713269  00000-0 -12703-1 0  9991,2 51733  53.2175 215.3797 0001819  37.2005 126.7774 15.52082171 10281,6788.785,92.779,411.885,409.415,0.0
51733.0,STARLINK-3525,PAYLOAD,2022-04-20 14:00:01,15.5157109,0.0001937,53.2176,213.7855,35.7487,191.4693,-0.012911,-0.00711841,0.0,0 STARLINK-3525,1 51733U 22016V   22110.58334491 -.00711841  00000-0 -12911-1 0  9992,2 51733  53.2176 213.7855 0001937  35.7487 191.4693 15.51571090  3707,6790.275,92.809,413.456,410.825,0.0
51733.0,STARLINK-3525,PAYLOAD,2022-04-20 22:00:00,15.51063267,0.0001581,53.2174,212.1899,41.2191,248.6264,-0.013223,-0.00724629,0.0,0 STARLINK-3525,1 51733U 22016V   22110.91667824 -.00724629  00000-0 -13223-1 0  9993,2 51733  53.2174 212.1899 0001581  41.2191 248.6264 15.51063267  3683,6791.757,92.84,414.696,412.549,0.0
51733.0,STARLINK-3525,PAYLOAD,2022-04-21 06:00:00,15.50550375,0.000159,53.2177,210.5953,36.6105,315.2514,-0.013355,-0.00718983,0.0,0 STARLINK-3525,1 51733U 22016V   22111.25001157 -.00718983  00000-0 -13355-1 0  9994,2 51733  53.2177 210.5953 0001590  36.6105 315.2514 15.50550375 10432,6793.255,92.87,416.2,414.04,0.0
51733.0,STARLINK-3525,PAYLOAD,2022-04-21 14:00:01,15.50043774,0.0001957,53.2176,209.0049,28.1506,25.1113,-0.013722,-0.00725092,0.0,0 STARLINK-3525,1 51733U 22016V   22111.58334491 -.00725092  00000-0 -13722-1 0  9997,2 51733  53.2176 209.0049 0001957  28.1506  25.1113 15.50043774  3713,6794.735,92.901,417.93,415.27,0.0
51733.0,STARLINK-3525,PAYLOAD,2022-04-21 22:00:00,15.49531659,0.0001706,53.2173,207.4128,36.9422,77.1105,-0.0138919999999999,-0.00721099,0.0,0 STARLINK-3525,1 51733U 22016V   22111.91667824 -.00721099  00000-0 -13892-1 0  9994,2 51733  53.2173 207.4128 0001706  36.9422  77.1105 15.49531659  3682,6796.232,92.931,419.257,416.93800000000016,0.0
51733.0,STARLINK-3525,PAYLOAD,2022-04-22 06:00:00,15.49021851,0.0001694,53.2175,205.8218,43.2945,130.9349,-0.014129,-0.00720336,0.0,0 STARLINK-3525,1 51733U 22016V   22112.25001157 -.00720336  00000-0 -14129-1 0  9990,2 51733  53.2175 205.8218 0001694  43.2945 130.9349 15.49021851 10597,6797.723000000001,92.962,420.74,418.437,0.0
51733.0,STARLINK-3525,PAYLOAD,2022-04-22 14:00:01,15.48511443,0.0002078,53.2174,204.235,32.4047,201.388,-0.014389,-0.00720551,0.0,0 STARLINK-3525,1 51733U 22016V   22112.58334491 -.00720551  00000-0 -14389-1 0  9993,2 51733  53.2174 204.2350 0002078  32.4047 201.3880 15.48511443  3704,6799.217,92.993,422.495,419.669,0.0
51733.0,STARLINK-3525,PAYLOAD,2022-04-23 06:00:02,15.47490822,0.000158,53.2175,201.0593,39.1328,312.0148,-0.014872,-0.00718603,0.0,0 STARLINK-3525,1 51733U 22016V   22113.25002315 -.00718603  00000-0 -14872-1 0  9997,2 51733  53.2175 201.0593 0001580  39.1328 312.0148 15.47490822 10747,6802.206,93.054,425.146,422.996,0.0
51733.0,STARLINK-3525,PAYLOAD,2022-04-23 14:00:01,15.46892959,0.0001653,53.2168,199.4748,38.1399,10.7193,-0.012696,-0.0060153,0.0,0 STARLINK-3525,1 51733U 22016V   22113.58334491 -.00601530  00000-0 -12696-1 0  9998,2 51733  53.2168 199.4748 0001653  38.1399  10.7193 15.46892959  3660,6803.959,93.09,426.948,424.699,0.0
51733.0,STARLINK-3525,PAYLOAD,2022-04-24 06:00:00,15.45961498,0.0001939,53.2176,196.308,34.3778,128.0431,-0.015697,-0.00719204,0.0,0 STARLINK-3525,1 51733U 22016V   22114.25001157 -.00719204  00000-0 -15697-1 0  9995,2 51733  53.2176 196.3080 0001939  34.3778 128.0431 15.45961498 10907,6806.691,93.146,429.876,427.237,0.0
51733.0,STARLINK-3525,PAYLOAD,2022-04-24 14:00:01,15.45451018,0.0002088,53.2176,194.7284,32.6464,185.6609,-0.015966,-0.00718809,0.0,0 STARLINK-3525,1 51733U 22016V   22114.58334491 -.00718809  00000-0 -15966-1 0  9990,2 51733  53.2176 194.7284 0002088  32.6464 185.6609 15.45451018  3689,6808.19,93.177,431.477,428.634,0.0
51733.0,STARLINK-3525,PAYLOAD,2022-04-25 06:00:00,15.44432409,0.0001911,53.2178,191.5675,29.9289,298.3147,-0.016574,-0.00720381,0.0,0 STARLINK-3525,1 51733U 22016V   22115.25001157 -.00720381  00000-0 -16574-1 0  9999,2 51733  53.2178 191.5675 0001911  29.9289 298.3147 15.44432409 11059,6811.183000000001,93.238,434.35,431.747,0.0
51733.0,STARLINK-3525,PAYLOAD,2022-04-25 14:00:01,15.43922459,0.0002092,53.2176,189.9917,22.936,359.3555,-0.016896,-0.0072162999999999,0.0,0 STARLINK-3525,1 51733U 22016V   22115.58334491 -.00721630  00000-0 -16896-1 0  9990,2 51733  53.2176 189.9917 0002092  22.9360 359.3555 15.43922459  3703,6812.683000000001,93.269,435.973,433.12300000000016,0.0
51733.0,STARLINK-3525,PAYLOAD,2022-04-25 22:00:00,15.43411711,0.0001551,53.2175,188.4137,40.043,35.6856,-0.017152,-0.00719981,0.0,0 STARLINK-3525,1 51733U 22016V   22115.91667824 -.00719981  00000-0 -17152-1 0  9998,2 51733  53.2175 188.4137 0001551  40.0430  35.6856 15.43411711  3698,6814.186,93.3,437.108,434.994,0.0
51733.0,STARLINK-3525,PAYLOAD,2022-04-26 06:00:00,15.42900857,0.0001786,53.2177,186.838,36.8439,91.7083,-0.017401,-0.0071808,0.0,0 STARLINK-3525,1 51733U 22016V   22116.25001157 -.00718080  00000-0 -17401-1 0  9993,2 51733  53.2177 186.8380 0001786  36.8439  91.7083 15.42900857 11219,6815.69,93.331,438.772,436.338,0.0
51733.0,STARLINK-3525,PAYLOAD,2022-04-26 14:00:01,15.42389697,0.0001818,53.2175,185.2657,40.0785,140.7477,-0.017655,-0.00716239,0.0,0 STARLINK-3525,1 51733U 22016V   22116.58335648 -.00716239  00000-0 -17655-1 0  9999,2 51733  53.2175 185.2657 0001818  40.0785 140.7477 15.42389697  3681,6817.196,93.362,440.3,437.821,0.0
51733.0,STARLINK-3525,PAYLOAD,2022-04-26 22:00:00,15.41883277,0.0001674,53.2175,183.6912,44.2592,188.1,-0.018115,-0.0072199,0.0,0 STARLINK-3525,1 51733U 22016V   22116.91667824 -.00721990  00000-0 -18115-1 0  9992,2 51733  53.2175 183.6912 0001674  44.2592 188.1000 15.41883277  3667,6818.688,93.392,441.695,439.412,0.0
51733.0,STARLINK-3525,PAYLOAD,2022-04-27 06:00:00,15.41372131,0.0001605,53.2176,182.1193,45.7525,237.592,-0.018358,-0.00719427,0.0,0 STARLINK-3525,1 51733U 22016V   22117.25001157 -.00719427  00000-0 -18358-1 0  9992,2 51733  53.2176 182.1193 0001605  45.7525 237.5920 15.41372131 11367,6820.196,93.423,443.155,440.966,0.0
51733.0,STARLINK-3525,PAYLOAD,2022-04-27 14:00:01,15.4074221,0.0001629,53.2168,180.5491,43.3697,290.4779,-0.014453,-0.00558469,0.0,0 STARLINK-3525,1 51733U 22016V   22117.58335648 -.00558469  00000-0 -14453-1 0  9992,2 51733  53.2168 180.5491 0001629  43.3697 290.4779 15.40742210  3641,6822.055,93.461,445.031,442.8080000000001,0.0
51733.0,STARLINK-3525,PAYLOAD,2022-04-28 06:00:00,15.39740947,0.0001598,53.2167,177.4096,49.828,22.8541,-0.015725,-0.00585643,0.0,0 STARLINK-3525,1 51733U 22016V   22118.25001157 -.00585643  00000-0 -15725-1 0  9999,2 51733  53.2167 177.4096 0001598  49.8280  22.8541 15.39740947 11512,6825.012,93.522,447.967,445.786,0.0
51733.0,STARLINK-3525,PAYLOAD,2022-04-28 14:00:01,15.39328213,0.0001667,53.2175,175.8467,40.8225,80.3339,-0.019476,-0.00713553,0.0,0 STARLINK-3525,1 51733U 22016V   22118.58334491 -.00713553  00000-0 -19476-1 0  9995,2 51733  53.2175 175.8467 0001667  40.8225  80.3339 15.39328213 11570,6826.232,93.547,449.235,446.959,0.0
51733.0,STARLINK-3525,PAYLOAD,2022-04-29 14:00:01,15.37798579,0.0001688,53.2176,171.1535,44.1649,218.9154,-0.020464,-0.00713036,0.0,0 STARLINK-3525,1 51733U 22016V   22119.58334491 -.00713036  00000-0 -20464-1 0  9991,2 51733  53.2176 171.1535 0001688  44.1649 218.9154 15.37798579 11721,6830.7580000000025,93.64,453.776,451.47,0.0
51733.0,STARLINK-3525,PAYLOAD,2022-04-29 22:00:00,15.37291618,0.000158,53.2177,169.5897,42.2488,266.9142,-0.020974,-0.00718363,0.0,0 STARLINK-3525,1 51733U 22016V   22119.91667824 -.00718363  00000-0 -20974-1 0  9991,2 51733  53.2177 169.5897 0001580  42.2488 266.9142 15.37291618  3683,6832.259,93.671,455.204,453.045,0.0
51733.0,STARLINK-3525,PAYLOAD,2022-04-30 12:00:00,15.36399308,0.0001712,53.2177,166.8609,41.1006,257.2309,-0.021592,-0.00718411,0.0,0 STARLINK-3525,1 51733U 22016V   22120.50001157 -.00718411  00000-0 -21592-1 0  9990,2 51733  53.2177 166.8609 0001712  41.1006 257.2309 15.36399308 11866,6834.904,93.726,457.939,455.599,0.0
51733.0,STARLINK-3525,PAYLOAD,2022-04-30 14:00:01,15.36269705,0.000172,53.2175,166.4713,34.2816,5.2074,-0.021569,-0.00714923,0.0,0 STARLINK-3525,1 51733U 22016V   22120.58334491 -.00714923  00000-0 -21569-1 0  9996,2 51733  53.2175 166.4713 0001720  34.2816   5.2074 15.36269705  3663,6835.2890000000025,93.734,458.329,455.978,0.0
51733.0,STARLINK-3525,PAYLOAD,2022-04-30 22:00:00,15.35689694,0.0001774,53.217,164.9097,24.2415,59.5302,-0.018883,-0.00620831,0.0,0 STARLINK-3525,1 51733U 22016V   22120.91667824 -.00620831  00000-0 -18883-1 0  9991,2 51733  53.2170 164.9097 0001774  24.2415  59.5302 15.35689694  3645,6837.01,93.769,460.088,457.662,0.0
51733.0,STARLINK-3525,PAYLOAD,2022-05-01 14:00:01,15.34737762,0.0001764999999999,53.2174,161.7997,41.0179,129.366,-0.022535,-0.00711278,0.0,0 STARLINK-3525,1 51733U 22016V   22121.58334491 -.00711278  00000-0 -22535-1 0  9991,2 51733  53.2174 161.7997 0001765  41.0179 129.3660 15.34737762 12032,6839.837,93.827,462.909,460.494,0.0
